[{"OBJECT_NAME":"STARLINK-4326","OBJECT_ID":"2022-077AQ","EPOCH":"2026-03-09T22:13:55.060608","MEAN_MOTION":15.01262959,"ECCENTRICITY":6.4e-5,"INCLINATION":97.6047,"RA_OF_ASC_NODE":250.428,"ARG_OF_PERICENTER":114.0681,"MEAN_ANOMALY":246.061,"EPHEMERIS_TYPE":0,"CLASSIFICATION_TYPE":"U","NORAD_CAT_ID":53081,"ELEMENT_SET_NO":999,"REV_AT_EPOCH":20095,"BSTAR":4.35826e-5,"MEAN_MOTION_DOT":5.02e-6,"MEAN_MOTION_DDOT":0},{"OBJECT_NAME":"ICEYE-X39","OBJECT_ID":"2024-149CG","EPOCH":"2026-03-09T17:17:30.183072","MEAN_MOTION":14.99225125,"ECCENTRICITY":0.0005274,"INCLINATION":97.6853,"RA_OF_ASC_NODE":147.0953,"ARG_OF_PERICENTER":52.5538,"MEAN_ANOMALY":307.6164,"EPHEMERIS_TYPE":0,"CLASSIFICATION_TYPE":"U","NORAD_CAT_ID":60546,"ELEMENT_SET_NO":999,"REV_AT_EPOCH":8521,"BSTAR":0.00029320082,"MEAN_MOTION_DOT":3.515e-5,"MEAN_MOTION_DDOT":0}]
